OBJECT_NAME,OBJECT_ID,EPOCH,MEAN_MOTION,ECCENTRICITY,INCLINATION,RA_OF_ASC_NODE,ARG_OF_PERICENTER,MEAN_ANOMALY,EPHEMERIS_TYPE,CLASSIFICATION_TYPE,NORAD_CAT_ID,ELEMENT_SET_NO,REV_AT_EPOCH,BSTAR,MEAN_MOTION_DOT,MEAN_MOTION_DDOT
GAOFEN-3,2016-049A,2026-06-11T17:48:17.366688,14.42214346,.000128,98.4014,170.6099,99.4600,260.6735,0,U,41727,999,51786,-.15027E-4,-.93E-6,0
SKYSAT-C4,2016-058B,2026-06-11T13:56:25.645632,15.48411611,.0000957,96.9177,184.5882,116.6405,243.4945,0,U,41771,999,54460,.28218E-3,.14882E-3,0
SKYSAT-C5,2016-058C,2026-06-11T16:35:22.665984,15.34391815,.0001617,97.0478,203.5767,351.6137,8.5079,0,U,41772,999,54290,.21302E-3,.702E-4,0
SKYSAT-C2,2016-058D,2026-06-11T14:43:42.182688,15.41943736,.000503,97.0174,184.9185,82.8740,277.3080,0,U,41773,999,54419,.26782E-3,.11321E-3,0
SKYSAT-C3,2016-058E,2026-06-11T12:51:07.340832,15.52297681,.0001751,96.9012,193.6007,86.2844,273.8610,0,U,41774,999,54523,.3399E-3,.206E-3,0
ALSAT-1B,2016-059C,2026-06-11T16:00:44.172288,14.72270759,.0007805,97.7755,171.6691,240.5989,119.4440,0,U,41785,999,51976,.64595E-4,.361E-5,0
PATHFINDER 1,2016-059E,2026-06-11T13:06:15.827328,14.67656806,.0027394,97.8166,162.0768,222.0974,137.8127,0,U,41787,999,51888,.94938E-4,.496E-5,0
SCATSAT 1,2016-059H,2026-06-11T16:01:17.540832,14.79514089,.0053252,98.1191,226.3766,265.7578,93.7547,0,U,41790,999,10077,.12697E-3,.914E-5,0
GOKTURK 1A,2016-073A,2026-06-11T16:55:12.678240,14.62770716,.0001437,98.1259,57.4649,77.5106,282.6256,0,U,41875,999,50802,.65481E-4,.287E-5,0
RESOURCESAT-2A,2016-074A,2026-06-11T17:19:19.468704,14.21614765,.0003367,98.7526,236.2707,93.4757,266.6805,0,U,41877,999,49352,.46919E-4,.59E-6,0
CARTOSAT-2D,2017-008A,2026-06-11T16:36:18.622080,15.19295719,.0003607,97.4115,222.1006,254.7536,105.3300,0,U,41948,999,51674,.27296E-3,.5694E-4,0
SENTINEL-2B,2017-013A,2026-06-11T16:23:32.138304,14.30816303,.0001194,98.5690,237.5352,84.1617,275.9702,0,U,42063,999,48385,.14483E-3,.336E-5,0
CARTOSAT-2E,2017-036C,2026-06-11T09:07:28.320960,15.19276811,.0002739,97.4279,222.2784,345.0815,15.0338,0,U,42767,999,49726,.17867E-3,.3701E-4,0
FORMOSAT-5,2017-049A,2026-06-11T16:10:12.781056,14.50896835,.0012704,98.2253,238.1058,99.5226,260.7405,0,U,42920,999,46587,.43336E-4,.128E-5,0
SENTINEL-5P,2017-064A,2026-06-11T16:53:43.122048,14.19518062,.0000985,98.7925,104.8742,83.5718,276.5570,0,U,42969,999,44878,.32042E-4,.23E-6,0
SKYSAT-C11,2017-068A,2026-06-11T09:42:19.124928,15.57594006,.0000881,97.4337,310.9856,86.6120,273.5236,0,U,42987,999,48234,.30874E-3,.22701E-3,0
SKYSAT-C10,2017-068B,2026-06-11T08:36:23.745888,15.34538193,.0001169,97.4490,299.1499,92.3296,267.8081,0,U,42988,999,48146,.22533E-3,.7458E-4,0
SKYSAT-C9,2017-068C,2026-06-11T15:45:07.521120,15.41424602,.0009162,97.4411,300.3327,150.5736,209.6029,0,U,42989,999,48190,.30298E-3,.12606E-3,0
SKYSAT-C8,2017-068D,2026-06-11T08:07:51.519072,15.36860099,.0001524,97.4508,298.9075,97.0045,263.1372,0,U,42990,999,48141,.25109E-3,.8965E-4,0
SKYSAT-C7,2017-068E,2026-06-11T15:47:11.751360,15.36816791,.0007126,97.4520,300.2198,122.5745,237.6188,0,U,42991,999,48152,.28624E-3,.10227E-3,0
SKYSAT-C6,2017-068F,2026-06-11T08:12:11.768832,15.34108684,.0004143,97.4555,299.8907,152.7349,207.4112,0,U,42992,999,48142,.24524E-3,.8016E-4,0
CARTOSAT-2F,2018-004A,2026-06-11T16:12:59.341248,15.19174253,.0000286,97.4796,222.3640,290.2378,69.8825,0,U,43111,999,46649,.24051E-3,.499E-4,0
GAOFEN-1 02,2018-031A,2026-06-11T17:47:27.172608,14.76450124,.0004126,98.0529,225.2836,47.3833,312.7724,0,U,43259,999,44189,.15562E-3,.1031E-4,0
GAOFEN-1 03,2018-031B,2026-06-11T17:16:03.084960,14.76461306,.0003818,98.0525,225.1207,89.9472,270.2175,0,U,43260,999,44188,.9701E-4,.623E-5,0
GAOFEN-1 04,2018-031D,2026-06-11T16:41:03.577056,14.76473003,.0002256,98.0531,225.2865,87.9447,272.2021,0,U,43262,999,44187,.14432E-3,.953E-5,0
SENTINEL-3B,2018-039A,2026-06-11T10:32:13.596000,14.26740095,.0000809,98.6248,230.0537,80.8461,279.2811,0,U,43437,999,42330,.49397E-4,.76E-6,0
GAOFEN-5 01,2018-043A,2026-06-11T15:35:44.149056,14.60601582,.0003051,98.4566,134.1198,93.5357,266.6191,0,U,43461,999,43088,.65725E-4,.27E-5,0
GAOFEN-6,2018-048A,2026-06-11T15:35:58.443936,14.76588225,.0011395,97.8379,225.5422,185.7681,174.3400,0,U,43484,999,43257,.12384E-4,.37E-6,0
GAOFEN-11 01,2018-063A,2026-06-11T16:54:06.233184,15.55132917,.0003808,97.1297,229.5998,18.2004,341.9387,0,U,43585,999,43949,.23098E-3,.15475E-3,0
ICESAT-2,2018-070A,2026-06-11T15:42:45.272160,15.28319944,.0005469,92.0068,289.4850,112.5329,247.6500,0,U,43613,999,43161,.32596E-3,.8992E-4,0
HYSIS,2018-096A,2026-06-11T17:31:34.107168,14.78684050,.0001777,97.9841,229.5210,110.0351,250.1051,0,U,43719,999,40661,.118E-3,.813E-5,0
